ONEWEB-0080             
1 45426U 20020C   25169.48661576  .00000145  00000+0  37389-3 0  9993
2 45426  87.8840  93.5560 0002135  88.4332 271.7040 13.11414253255036
ONEWEB-0090             
1 45427U 20020D   25169.50609448 -.00000474  00000+0 -13723-2 0  9999
2 45427  87.8846  93.5523 0002040  78.6921 281.4436 13.11415546255002
ONEWEB-0061             
1 45428U 20020E   25169.53819310  .00000453  00000+0  12412-2 0  9993
2 45428  87.8845  93.5284 0001987  80.1531 279.9821 13.11417422254969
ONEWEB-0081             
1 45429U 20020F   25169.51966579 -.00000289  00000+0 -85204-3 0  9991
2 45429  87.8844  93.5524 0001781  82.3872 277.7458 13.11418512255076
ONEWEB-0069             
1 45430U 20020G   25169.50865329 -.00000492  00000+0 -14232-2 0  9991
2 45430  87.8845  93.5449 0001860  77.4012 282.7324 13.11416648255003
ONEWEB-0031             
1 45431U 20020H   25169.48068709  .00000345  00000+0  93826-3 0  9998
2 45431  87.8849  93.5805 0002218  79.7935 280.3443 13.11414418254986
ONEWEB-0027             
1 45432U 20020J   25169.49650880  .00000020  00000+0  18146-4 0  9990
2 45432  87.9065  78.2506 0002157  71.1862 288.9503 13.17652120258461
ONEWEB-0064             
1 45433U 20020K   25169.55528842  .00000413  00000+0  11307-2 0  9996
2 45433  87.8844  93.5589 0002165  77.3006 282.8363 13.11415014255023
